{
  "type": "FeatureCollection",
  "features": [
    {
      "type": "Feature",
      "properties": {
        "norad_id": 43783,
        "name": "KAZSTSAT",
        "group": "resource",
        "lat": 79.70841814204122,
        "lon": -13.267881383176801,
        "alt_km": 565.5927396563939,
        "timestamp": "2025-12-24T03:53:29.300130+00:00",
        "meta_object_name": "KAZSTSAT",
        "meta_object_id": "2018-099AB",
        "meta_epoch": "2025-12-23T13:06:28.359648",
        "meta_mean_motion": 14.99369122,
        "meta_eccentricity": 0.0006184,
        "meta_inclination": 97.4518,
        "meta_ra_of_asc_node": 32.2653,
        "meta_arg_of_pericenter": 281.7158,
        "meta_mean_anomaly": 78.3372,
        "meta_ephemeris_type": 0,
        "meta_classification_type": "U",
        "meta_norad_cat_id": 43783,
        "meta_element_set_no": 999,
        "meta_rev_at_epoch": 38498,
        "meta_bstar": 4.4768e-05,
        "meta_mean_motion_dot": 4.92e-06,
        "meta_mean_motion_ddot": 0,
        "tle_line1": "1 43783U 18099AB  25357.54616157  .00000492  00000+0  44768-4 0  9996",
        "tle_line2": "2 43783  97.4518  32.2653 0006184 281.7158  78.3372 14.99369122384981"
      },
      "geometry": {
        "type": "Point",
        "coordinates": [
          -13.267881383176801,
          79.70841814204122
        ]
      }
    },
    {
      "type": "Feature",
      "properties": {
        "norad_id": 43831,
        "name": "SAUDISAT 5A",
        "group": "resource",
        "lat": 41.46054261931152,
        "lon": -115.33415431197007,
        "alt_km": 486.1331747257036,
        "timestamp": "2025-12-24T03:53:29.300141+00:00",
        "meta_object_name": "SAUDISAT 5A",
        "meta_object_id": "2018-102A",
        "meta_epoch": "2025-12-23T20:59:36.811104",
        "meta_mean_motion": 15.25787464,
        "meta_eccentricity": 0.0011165,
        "meta_inclination": 97.3333,
        "meta_ra_of_asc_node": 57.8507,
        "meta_arg_of_pericenter": 41.6555,
        "meta_mean_anomaly": 318.5532,
        "meta_ephemeris_type": 0,
        "meta_classification_type": "U",
        "meta_norad_cat_id": 43831,
        "meta_element_set_no": 999,
        "meta_rev_at_epoch": 38892,
        "meta_bstar": 0.0002491,
        "meta_mean_motion_dot": 6.303e-05,
        "meta_mean_motion_ddot": 0,
        "tle_line1": "1 43831U 18102A   25357.87473161  .00006303  00000+0  24910-3 0  9990",
        "tle_line2": "2 43831  97.3333  57.8507 0011165  41.6555 318.5532 15.25787464388927"
      },
      "geometry": {
        "type": "Point",
        "coordinates": [
          -115.33415431197007,
          41.46054261931152
        ]
      }
    },
    {
      "type": "Feature",
      "properties": {
        "norad_id": 43833,
        "name": "SAUDISAT 5B",
        "group": "resource",
        "lat": -24.456574528080907,
        "lon": -122.47055048948025,
        "alt_km": 500.7916350694213,
        "timestamp": "2025-12-24T03:53:29.300151+00:00",
        "meta_object_name": "SAUDISAT 5B",
        "meta_object_id": "2018-102C",
        "meta_epoch": "2025-12-23T20:42:14.505696",
        "meta_mean_motion": 15.26134455,
        "meta_eccentricity": 0.0011914,
        "meta_inclination": 97.3428,
        "meta_ra_of_asc_node": 60.5975,
        "meta_arg_of_pericenter": 43.7824,
        "meta_mean_anomaly": 316.4358,
        "meta_ephemeris_type": 0,
        "meta_classification_type": "U",
        "meta_norad_cat_id": 43833,
        "meta_element_set_no": 999,
        "meta_rev_at_epoch": 38903,
        "meta_bstar": 0.00024932,
        "meta_mean_motion_dot": 6.377e-05,
        "meta_mean_motion_ddot": 0,
        "tle_line1": "1 43833U 18102C   25357.86266789  .00006377  00000+0  24932-3 0  9992",
        "tle_line2": "2 43833  97.3428  60.5975 0011914  43.7824 316.4358 15.26134455389031"
      },
      "geometry": {
        "type": "Point",
        "coordinates": [
          -122.47055048948025,
          -24.456574528080907
        ]
      }
    },
    {
      "type": "Feature",
      "properties": {
        "norad_id": 44622,
        "name": "GAOFEN-10R",
        "group": "resource",
        "lat": 7.790662875465104,
        "lon": 126.82046786838538,
        "alt_km": 627.1311866884607,
        "timestamp": "2025-12-24T03:53:29.300162+00:00",
        "meta_object_name": "GAOFEN-10R",
        "meta_object_id": "2019-066A",
        "meta_epoch": "2025-12-23T20:38:25.060128",
        "meta_mean_motion": 14.82827701,
        "meta_eccentricity": 0.00071,
        "meta_inclination": 98.0293,
        "meta_ra_of_asc_node": 305.4105,
        "meta_arg_of_pericenter": 9.2177,
        "meta_mean_anomaly": 350.9165,
        "meta_ephemeris_type": 0,
        "meta_classification_type": "U",
        "meta_norad_cat_id": 44622,
        "meta_element_set_no": 999,
        "meta_rev_at_epoch": 33639,
        "meta_bstar": 0.00019116,
        "meta_mean_motion_dot": 1.493e-05,
        "meta_mean_motion_ddot": 0,
        "tle_line1": "1 44622U 19066A   25357.86001227  .00001493  00000+0  19116-3 0  9995",
        "tle_line2": "2 44622  98.0293 305.4105 0007100   9.2177 350.9165 14.82827701336396"
      },
      "geometry": {
        "type": "Point",
        "coordinates": [
          126.82046786838538,
          7.790662875465104
        ]
      }
    },
    {
      "type": "Feature",
      "properties": {
        "norad_id": 44804,
        "name": "CARTOSAT-3",
        "group": "resource",
        "lat": 28.486611367641192,
        "lon": 53.52399312042519,
        "alt_km": 497.9342866867073,
        "timestamp": "2025-12-24T03:53:29.300172+00:00",
        "meta_object_name": "CARTOSAT-3",
        "meta_object_id": "2019-081A",
        "meta_epoch": "2025-12-23T19:51:42.852384",
        "meta_mean_motion": 15.19242197,
        "meta_eccentricity": 0.0013743,
        "meta_inclination": 97.4565,
        "meta_ra_of_asc_node": 57.2693,
        "meta_arg_of_pericenter": 48.4951,
        "meta_mean_anomaly": 311.746,
        "meta_ephemeris_type": 0,
        "meta_classification_type": "U",
        "meta_norad_cat_id": 44804,
        "meta_element_set_no": 999,
        "meta_rev_at_epoch": 33684,
        "meta_bstar": 0.00022267,
        "meta_mean_motion_dot": 4.634e-05,
        "meta_mean_motion_ddot": 0,
        "tle_line1": "1 44804U 19081A   25357.82757931  .00004634  00000+0  22267-3 0  9991",
        "tle_line2": "2 44804  97.4565  57.2693 0013743  48.4951 311.7460 15.19242197336846"
      },
      "geometry": {
        "type": "Point",
        "coordinates": [
          53.52399312042519,
          28.486611367641192
        ]
      }
    },
    {
      "type": "Feature",
      "properties": {
        "norad_id": 44819,
        "name": "GAOFEN-12 01",
        "group": "resource",
        "lat": -9.405577946771208,
        "lon": 5.446498386897012,
        "alt_km": 632.8264239207856,
        "timestamp": "2025-12-24T03:53:29.300183+00:00",
        "meta_object_name": "GAOFEN-12 01",
        "meta_object_id": "2019-082A",
        "meta_epoch": "2025-12-23T21:26:48.290208",
        "meta_mean_motion": 14.80669553,
        "meta_eccentricity": 0.0002113,
        "meta_inclination": 97.8125,
        "meta_ra_of_asc_node": 3.8818,
        "meta_arg_of_pericenter": 182.8055,
        "meta_mean_anomaly": 177.3146,
        "meta_ephemeris_type": 0,
        "meta_classification_type": "U",
        "meta_norad_cat_id": 44819,
        "meta_element_set_no": 999,
        "meta_rev_at_epoch": 32815,
        "meta_bstar": 6.3988e-05,
        "meta_mean_motion_dot": 4.41e-06,
        "meta_mean_motion_ddot": 0,
        "tle_line1": "1 44819U 19082A   25357.89361447  .00000441  00000+0  63988-4 0  9996",
        "tle_line2": "2 44819  97.8125   3.8818 0002113 182.8055 177.3146 14.80669553328159"
      },
      "geometry": {
        "type": "Point",
        "coordinates": [
          5.446498386897012,
          -9.405577946771208
        ]
      }
    },
    {
      "type": "Feature",
      "properties": {
        "norad_id": 44873,
        "name": "CSG-1",
        "group": "resource",
        "lat": 16.89675865846611,
        "lon": 1.7254029680707923,
        "alt_km": 622.8898058123723,
        "timestamp": "2025-12-24T03:53:29.300193+00:00",
        "meta_object_name": "CSG-1",
        "meta_object_id": "2019-092A",
        "meta_epoch": "2025-12-23T19:03:29.165184",
        "meta_mean_motion": 14.82158557,
        "meta_eccentricity": 0.0001481,
        "meta_inclination": 97.8805,
        "meta_ra_of_asc_node": 178.9517,
        "meta_arg_of_pericenter": 85.8823,
        "meta_mean_anomaly": 274.2559,
        "meta_ephemeris_type": 0,
        "meta_classification_type": "U",
        "meta_norad_cat_id": 44873,
        "meta_element_set_no": 999,
        "meta_rev_at_epoch": 32549,
        "meta_bstar": 6.31e-05,
        "meta_mean_motion_dot": 4.5e-06,
        "meta_mean_motion_ddot": 0,
        "tle_line1": "1 44873U 19092A   25357.79408756  .00000450  00000+0  63100-4 0  9997",
        "tle_line2": "2 44873  97.8805 178.9517 0001481  85.8823 274.2559 14.82158557325494"
      },
      "geometry": {
        "type": "Point",
        "coordinates": [
          1.7254029680707923,
          16.89675865846611
        ]
      }
    }
  ]
}